CCSDS_OMM_VERS,COMMENT,CREATION_DATE,ORIGINATOR,OBJECT_NAME,OBJECT_ID,CENTER_NAME,REF_FRAME,TIME_SYSTEM,MEAN_ELEMENT_THEORY,EPOCH,MEAN_MOTION,ECCENTRICITY,INCLINATION,RA_OF_ASC_NODE,ARG_OF_PERICENTER,MEAN_ANOMALY,EPHEMERIS_TYPE,CLASSIFICATION_TYPE,NORAD_CAT_ID,ELEMENT_SET_NO,REV_AT_EPOCH,BSTAR,MEAN_MOTION_DOT,MEAN_MOTION_DDOT,SEMIMAJOR_AXIS,PERIOD,APOAPSIS,PERIAPSIS,OBJECT_TYPE,RCS_SIZE,COUNTRY_CODE,LAUNCH_DATE,SITE,DECAY_DATE,FILE,GP_ID,TLE_LINE0,TLE_LINE1,TLE_LINE2
"3.0","GENERATED VIA SPACE-TRACK.ORG API","2025-12-28T04:40:25","18 SPCS","VANGUARD 1","1958-002B","EARTH","TEME","UTC","SGP4","2025-12-27T15:47:27.800160","10.85939512","0.18399648","34.2427","123.6851","85.1019","295.5998","0","U","5","999","42463","0.00003700514700","0.00000010","0.0000000000000","8613.865","132.604","3820.651","650.810","PAYLOAD","SMALL","US","1958-03-17","AFETR","","4941611","306865621","0 VANGUARD 1","1 00005U 58002B   25361.65796065  .00000010  00000-0  37005-4 0  9991","2 00005  34.2427 123.6851 1839965  85.1019 295.5998 10.85939512424639"
"3.0","GENERATED VIA SPACE-TRACK.ORG API","2025-12-28T17:52:40","18 SPCS","VANGUARD 2","1959-001A","EARTH","TEME","UTC","SGP4","2025-12-28T09:39:51.247008","11.90160022","0.14476185","32.8696","11.3649","165.1672","199.6448","0","U","11","999","51511","0.00021355098000","0.00000426","0.0000000000000","8103.356","120.992","2898.278","552.164","PAYLOAD","MEDIUM","US","1959-02-17","AFETR","","4943081","306965524","0 VANGUARD 2","1 00011U 59001A   25362.40267647  .00000426  00000-0  21355-3 0  9992","2 00011  32.8696  11.3649 1447619 165.1672 199.6448 11.90160022515118"
